0 SL-14 R/B
1 11267U 79011B   13281.13757551  .00000391  00000-0  40047-4 0  2179
2 11267 082.5258 061.4078 0017766 035.1886 017.8181 14.87793239874944
0 SL-14 R/B
1 11267U 79011B   13282.14752216  .00000421  00000-0  43244-4 0  2181
2 11267 082.5259 060.4559 0017703 031.9690 027.0134 14.87795454875095
0 SL-14 R/B
1 11267U 79011B   13283.15647071  .00000435  00000-0  44790-4 0  2198
2 11267 082.5261 059.5049 0017605 028.6666 030.9579 14.87796370875249
0 SL-14 R/B
1 11267U 79011B   13284.16440737  .00000486  00000-0  50368-4 0  2206
2 11267 082.5263 058.5548 0017519 025.4148 029.4372 14.87797148875392
0 SL-14 R/B
1 11267U 79011B   13285.50770126  .00000356  00000-0  36156-4 0  2219
2 11267 082.5267 057.2887 0017382 020.9663 024.1979 14.87798788875596
0 SL-14 R/B
1 11267U 79011B   13286.51647802  .00000382  00000-0  39057-4 0  2228
2 11267 082.5270 056.3380 0017299 017.6350 027.2639 14.87799493875749
0 SL-14 R/B
1 11267U 79011B   13287.80667779  .00000549  00000-0  57244-4 0  2230
2 11267 082.5273 055.1220 0017193 013.3550 097.6725 14.87800794875935
0 SL-14 R/B
1 11267U 79011B   13288.81535738  .00000614  00000-0  64439-4 0  2249
2 11267 082.5274 054.1715 0017106 009.9960 100.2551 14.87801893876080
0 SL-14 R/B
1 11267U 79011B   13289.82444413  .00000560  00000-0  58533-4 0  2259
2 11267 082.5275 053.2206 0017012 006.4788 105.1757 14.87803605876234
0 SL-14 R/B
1 11267U 79011B   13290.89722698  .00000554  00000-0  57804-4 0  2266
2 11267 082.5275 052.2098 0016918 002.8644 091.1520 14.87804856876395
0 SL-14 R/B
1 11267U 79011B   13291.91454307  .00000615  00000-0  64479-4 0  2274
2 11267 082.5275 051.2512 0016838 359.3816 140.1036 14.87805500876548
0 SL-14 R/B
1 11267U 79011B   13292.92335275  .00000675  00000-0  71139-4 0  2286
2 11267 082.5274 050.3006 0016755 355.8932 143.5292 14.87806325876696
0 SL-14 R/B
1 11267U 79011B   13294.11822773  .00000634  00000-0  66624-4 0  2292
2 11267 082.5274 049.1746 0016652 351.8317 063.4962 14.87808366876873
0 SL-14 R/B
1 11267U 79011B   13295.12692558  .00000633  00000-0  66495-4 0  2307
2 11267 082.5275 048.2241 0016565 348.3483 066.3253 14.87809687877022
